[{"OBJECT_NAME":"YAOGAN-12","OBJECT_ID":"2011-066B","EPOCH":"2026-03-09T23:39:51.505056","MEAN_MOTION":15.25407482,"ECCENTRICITY":0.00091131,"INCLINATION":97.1283,"RA_OF_ASC_NODE":112.2403,"ARG_OF_PERICENTER":209.5466,"MEAN_ANOMALY":150.5259,"EPHEMERIS_TYPE":0,"CLASSIFICATION_TYPE":"U","NORAD_CAT_ID":37875,"ELEMENT_SET_NO":999,"REV_AT_EPOCH":79691,"BSTAR":0.0002218082,"MEAN_MOTION_DOT":5.54e-5,"MEAN_MOTION_DDOT":0},{"OBJECT_NAME":"STARLINK-31179","OBJECT_ID":"2024-005Y","EPOCH":"2026-03-09T19:25:42.648960","MEAN_MOTION":15.26735865,"ECCENTRICITY":7.174e-5,"INCLINATION":43.0036,"RA_OF_ASC_NODE":218.9351,"ARG_OF_PERICENTER":263.6598,"MEAN_ANOMALY":96.4172,"EPHEMERIS_TYPE":0,"CLASSIFICATION_TYPE":"U","NORAD_CAT_ID":58750,"ELEMENT_SET_NO":999,"REV_AT_EPOCH":12046,"BSTAR":5.5251005e-5,"MEAN_MOTION_DOT":1.223e-5,"MEAN_MOTION_DDOT":0}]
